[{"OBJECT_NAME":"STARLINK-2314","OBJECT_ID":"2021-018B","EPOCH":"2026-03-09T16:15:38.439072","MEAN_MOTION":15.30196735,"ECCENTRICITY":0.00012943,"INCLINATION":53.1611,"RA_OF_ASC_NODE":219.7915,"ARG_OF_PERICENTER":78.4558,"MEAN_ANOMALY":281.6588,"EPHEMERIS_TYPE":0,"CLASSIFICATION_TYPE":"U","NORAD_CAT_ID":47788,"ELEMENT_SET_NO":999,"REV_AT_EPOCH":27706,"BSTAR":8.6929658e-5,"MEAN_MOTION_DOT":2.216e-5,"MEAN_MOTION_DDOT":0},{"OBJECT_NAME":"COSMOS 1975","OBJECT_ID":"1988-093A","EPOCH":"2026-03-09T14:15:08.474112","MEAN_MOTION":15.28069249,"ECCENTRICITY":0.0012117,"INCLINATION":82.5181,"RA_OF_ASC_NODE":117.7814,"ARG_OF_PERICENTER":163.8427,"MEAN_ANOMALY":196.3201,"EPHEMERIS_TYPE":0,"CLASSIFICATION_TYPE":"U","NORAD_CAT_ID":19573,"ELEMENT_SET_NO":999,"REV_AT_EPOCH":1939,"BSTAR":0.0002787,"MEAN_MOTION_DOT":7.676e-5,"MEAN_MOTION_DDOT":0}]
